{"type":"FeatureCollection","features":[{"type":"Feature","properties":{"id":"f1","name":"Ikorodu Ferry Terminal","lga":"Ikorodu","type":"Ferry Terminal","quality":"Developed","operator":"LagFerry","capacity":1800,"destinations":["Falomo","Five Cowrie Creek","Marina"],"source":"Field survey, Mar 2026","surveyed":"2026-03-14"},"geometry":{"type":"Point","coordinates":[3.5012,6.5788]}},{"type":"Feature","properties":{"id":"f2","name":"Marina Ferry Terminal","lga":"Lagos Island","type":"Ferry Terminal","quality":"Developed","operator":"LagFerry","capacity":2400,"destinations":["Ikorodu","Apapa","Ebute Ero"],"source":"Field survey, Feb 2026","surveyed":"2026-02-02"},"geometry":{"type":"Point","coordinates":[3.3958,6.4501]}},{"type":"Feature","properties":{"id":"f3","name":"Ijede Jetty","lga":"Ikorodu","type":"Jetty","quality":"Less developed","operator":"Private operators","capacity":300,"destinations":["Ikorodu","Baiyeku"],"source":"Rider interviews, Apr 2026","surveyed":"2026-04-09"},"geometry":{"type":"Point","coordinates":[3.568,6.53]}},{"type":"Feature","properties":{"id":"f4","name":"Five Cowrie Creek Terminal","lga":"Eti-Osa","type":"Ferry Terminal","quality":"Developed","operator":"Texas Connection Ferries","capacity":1100,"destinations":["Marina","Falomo"],"source":"Field survey, Feb 2026","surveyed":"2026-02-18"},"geometry":{"type":"Point","coordinates":[3.43,6.439]}},{"type":"Feature","properties":{"id":"f5","name":"Baiyeku Boat Landing","lga":"Ikorodu","type":"Boat Landing","quality":"Less developed","operator":"Informal","capacity":120,"destinations":["Ijede","Badore"],"source":"Satellite + interviews","surveyed":"2026-04-11"},"geometry":{"type":"Point","coordinates":[3.557,6.505]}},{"type":"Feature","properties":{"id":"f6","name":"Takwa Bay Landing","lga":"Eti-Osa","type":"Boat Landing","quality":"Less developed","operator":"Charter only","capacity":80,"destinations":["Marina"],"source":"Field survey, Jan 2026","surveyed":"2026-01-27"},"geometry":{"type":"Point","coordinates":[3.402,6.405]}},{"type":"Feature","properties":{"id":"f7","name":"Badore Ferry Terminal","lga":"Eti-Osa","type":"Ferry Terminal","quality":"Developed","operator":"LagFerry","capacity":1500,"destinations":["Ijede","Ikorodu"],"source":"Field survey, May 2026","surveyed":"2026-05-06"},"geometry":{"type":"Point","coordinates":[3.596,6.462]}},{"type":"Feature","properties":{"id":"f8","name":"Apapa Jetty","lga":"Apapa","type":"Jetty","quality":"Developed","operator":"LagFerry","capacity":700,"destinations":["Marina"],"source":"Field survey, Feb 2026","surveyed":"2026-02-21"},"geometry":{"type":"Point","coordinates":[3.36,6.44]}},{"type":"Feature","properties":{"id":"f9","name":"Ebute Ero Jetty","lga":"Lagos Island","type":"Jetty","quality":"Less developed","operator":"Private operators","capacity":250,"destinations":["Marina"],"source":"Rider interviews","surveyed":"2026-03-30"},"geometry":{"type":"Point","coordinates":[3.388,6.457]}},{"type":"Feature","properties":{"id":"f10","name":"Falomo Jetty","lga":"Eti-Osa","type":"Jetty","quality":"Developed","operator":"LagFerry","capacity":600,"destinations":["Ikorodu","Five Cowrie Creek"],"source":"Field survey, Feb 2026","surveyed":"2026-02-19"},"geometry":{"type":"Point","coordinates":[3.423,6.443]}}]}