{"type":"FeatureCollection","features":[{"type":"Feature","properties":{"id":"lga1","name":"Ikorodu"},"geometry":{"type":"Polygon","coordinates":[[[3.44,6.52],[3.62,6.52],[3.62,6.66],[3.44,6.66],[3.44,6.52]]]}},{"type":"Feature","properties":{"id":"lga2","name":"Eti-Osa"},"geometry":{"type":"Polygon","coordinates":[[[3.4,6.39],[3.68,6.39],[3.68,6.48],[3.4,6.48],[3.4,6.39]]]}},{"type":"Feature","properties":{"id":"lga3","name":"Lagos Island"},"geometry":{"type":"Polygon","coordinates":[[[3.37,6.43],[3.43,6.43],[3.43,6.47],[3.37,6.47],[3.37,6.43]]]}},{"type":"Feature","properties":{"id":"lga4","name":"Apapa"},"geometry":{"type":"Polygon","coordinates":[[[3.32,6.42],[3.38,6.42],[3.38,6.47],[3.32,6.47],[3.32,6.42]]]}}]}