{"type":"FeatureCollection","features":[{"type":"Feature","properties":{"id":"r1","name":"Ikorodu — Falomo","operator":"LagFerry","status":"operational"},"geometry":{"type":"LineString","coordinates":[[3.5012,6.5788],[3.47,6.52],[3.44,6.47],[3.423,6.443]]}},{"type":"Feature","properties":{"id":"r2","name":"Marina — Apapa","operator":"LagFerry","status":"operational"},"geometry":{"type":"LineString","coordinates":[[3.3958,6.4501],[3.378,6.446],[3.36,6.44]]}},{"type":"Feature","properties":{"id":"r3","name":"Ijede — Baiyeku","operator":"Private operators","status":"informal"},"geometry":{"type":"LineString","coordinates":[[3.568,6.53],[3.562,6.517],[3.557,6.505]]}},{"type":"Feature","properties":{"id":"r4","name":"Five Cowrie Creek — Marina","operator":"Texas Connection Ferries","status":"operational"},"geometry":{"type":"LineString","coordinates":[[3.43,6.439],[3.412,6.443],[3.3958,6.4501]]}},{"type":"Feature","properties":{"id":"r5","name":"Badore — Ijede","operator":"OMI EKO (proposed)","status":"proposed"},"geometry":{"type":"LineString","coordinates":[[3.596,6.462],[3.584,6.495],[3.568,6.53]]}},{"type":"Feature","properties":{"id":"r6","name":"Ikorodu — Marina","operator":"LagFerry","status":"operational"},"geometry":{"type":"LineString","coordinates":[[3.5012,6.5788],[3.46,6.51],[3.42,6.47],[3.3958,6.4501]]}}]}