{"type":"FeatureCollection","features":[{"type":"Feature","properties":{"id":"t0","trips":100},"geometry":{"type":"Point","coordinates":[3.4038,6.4501]}},{"type":"Feature","properties":{"id":"t1","trips":86},"geometry":{"type":"Point","coordinates":[3.40841,6.45435]}},{"type":"Feature","properties":{"id":"t2","trips":71},"geometry":{"type":"Point","coordinates":[3.40827,6.46105]}},{"type":"Feature","properties":{"id":"t3","trips":57},"geometry":{"type":"Point","coordinates":[3.40159,6.46784]}},{"type":"Feature","properties":{"id":"t4","trips":43},"geometry":{"type":"Point","coordinates":[3.38868,6.47194]}},{"type":"Feature","properties":{"id":"t5","trips":100},"geometry":{"type":"Point","coordinates":[3.39081,6.45448]}},{"type":"Feature","properties":{"id":"t6","trips":86},"geometry":{"type":"Point","coordinates":[3.38319,6.45435]}},{"type":"Feature","properties":{"id":"t7","trips":71},"geometry":{"type":"Point","coordinates":[3.3758,6.4501]}},{"type":"Feature","properties":{"id":"t8","trips":57},"geometry":{"type":"Point","coordinates":[3.37237,6.4422]}},{"type":"Feature","properties":{"id":"t9","trips":43},"geometry":{"type":"Point","coordinates":[3.37585,6.43259]}},{"type":"Feature","properties":{"id":"t10","trips":100},"geometry":{"type":"Point","coordinates":[3.39402,6.44464]}},{"type":"Feature","properties":{"id":"t11","trips":86},"geometry":{"type":"Point","coordinates":[3.39892,6.44055]}},{"type":"Feature","properties":{"id":"t12","trips":71},"geometry":{"type":"Point","coordinates":[3.40827,6.43915]}},{"type":"Feature","properties":{"id":"t13","trips":57},"geometry":{"type":"Point","coordinates":[3.41923,6.4422]}},{"type":"Feature","properties":{"id":"t14","trips":82},"geometry":{"type":"Point","coordinates":[3.5092,6.5788]}},{"type":"Feature","properties":{"id":"t15","trips":70},"geometry":{"type":"Point","coordinates":[3.51381,6.58305]}},{"type":"Feature","properties":{"id":"t16","trips":59},"geometry":{"type":"Point","coordinates":[3.51367,6.58975]}},{"type":"Feature","properties":{"id":"t17","trips":47},"geometry":{"type":"Point","coordinates":[3.50699,6.59654]}},{"type":"Feature","properties":{"id":"t18","trips":35},"geometry":{"type":"Point","coordinates":[3.49408,6.60064]}},{"type":"Feature","properties":{"id":"t19","trips":82},"geometry":{"type":"Point","coordinates":[3.49621,6.58318]}},{"type":"Feature","properties":{"id":"t20","trips":70},"geometry":{"type":"Point","coordinates":[3.48859,6.58305]}},{"type":"Feature","properties":{"id":"t21","trips":59},"geometry":{"type":"Point","coordinates":[3.4812,6.5788]}},{"type":"Feature","properties":{"id":"t22","trips":47},"geometry":{"type":"Point","coordinates":[3.47777,6.5709]}},{"type":"Feature","properties":{"id":"t23","trips":35},"geometry":{"type":"Point","coordinates":[3.48125,6.56129]}},{"type":"Feature","properties":{"id":"t24","trips":82},"geometry":{"type":"Point","coordinates":[3.49942,6.57334]}},{"type":"Feature","properties":{"id":"t25","trips":70},"geometry":{"type":"Point","coordinates":[3.50432,6.56925]}},{"type":"Feature","properties":{"id":"t26","trips":59},"geometry":{"type":"Point","coordinates":[3.51367,6.56785]}},{"type":"Feature","properties":{"id":"t27","trips":47},"geometry":{"type":"Point","coordinates":[3.52463,6.5709]}},{"type":"Feature","properties":{"id":"t28","trips":64},"geometry":{"type":"Point","coordinates":[3.431,6.443]}},{"type":"Feature","properties":{"id":"t29","trips":55},"geometry":{"type":"Point","coordinates":[3.43561,6.44725]}},{"type":"Feature","properties":{"id":"t30","trips":46},"geometry":{"type":"Point","coordinates":[3.43547,6.45395]}},{"type":"Feature","properties":{"id":"t31","trips":37},"geometry":{"type":"Point","coordinates":[3.42879,6.46074]}},{"type":"Feature","properties":{"id":"t32","trips":27},"geometry":{"type":"Point","coordinates":[3.41588,6.46484]}},{"type":"Feature","properties":{"id":"t33","trips":64},"geometry":{"type":"Point","coordinates":[3.41801,6.44738]}},{"type":"Feature","properties":{"id":"t34","trips":55},"geometry":{"type":"Point","coordinates":[3.41039,6.44725]}},{"type":"Feature","properties":{"id":"t35","trips":46},"geometry":{"type":"Point","coordinates":[3.403,6.443]}},{"type":"Feature","properties":{"id":"t36","trips":37},"geometry":{"type":"Point","coordinates":[3.39957,6.4351]}},{"type":"Feature","properties":{"id":"t37","trips":27},"geometry":{"type":"Point","coordinates":[3.40305,6.42549]}},{"type":"Feature","properties":{"id":"t38","trips":64},"geometry":{"type":"Point","coordinates":[3.42122,6.43754]}},{"type":"Feature","properties":{"id":"t39","trips":55},"geometry":{"type":"Point","coordinates":[3.42612,6.43345]}},{"type":"Feature","properties":{"id":"t40","trips":46},"geometry":{"type":"Point","coordinates":[3.43547,6.43205]}},{"type":"Feature","properties":{"id":"t41","trips":37},"geometry":{"type":"Point","coordinates":[3.44643,6.4351]}},{"type":"Feature","properties":{"id":"t42","trips":48},"geometry":{"type":"Point","coordinates":[3.604,6.462]}},{"type":"Feature","properties":{"id":"t43","trips":41},"geometry":{"type":"Point","coordinates":[3.60861,6.46625]}},{"type":"Feature","properties":{"id":"t44","trips":34},"geometry":{"type":"Point","coordinates":[3.60847,6.47295]}},{"type":"Feature","properties":{"id":"t45","trips":27},"geometry":{"type":"Point","coordinates":[3.60179,6.47974]}},{"type":"Feature","properties":{"id":"t46","trips":21},"geometry":{"type":"Point","coordinates":[3.58888,6.48384]}},{"type":"Feature","properties":{"id":"t47","trips":48},"geometry":{"type":"Point","coordinates":[3.59101,6.46638]}},{"type":"Feature","properties":{"id":"t48","trips":41},"geometry":{"type":"Point","coordinates":[3.58339,6.46625]}},{"type":"Feature","properties":{"id":"t49","trips":34},"geometry":{"type":"Point","coordinates":[3.576,6.462]}},{"type":"Feature","properties":{"id":"t50","trips":27},"geometry":{"type":"Point","coordinates":[3.57257,6.4541]}},{"type":"Feature","properties":{"id":"t51","trips":21},"geometry":{"type":"Point","coordinates":[3.57605,6.44449]}},{"type":"Feature","properties":{"id":"t52","trips":48},"geometry":{"type":"Point","coordinates":[3.59422,6.45654]}},{"type":"Feature","properties":{"id":"t53","trips":41},"geometry":{"type":"Point","coordinates":[3.59912,6.45245]}},{"type":"Feature","properties":{"id":"t54","trips":34},"geometry":{"type":"Point","coordinates":[3.60847,6.45105]}},{"type":"Feature","properties":{"id":"t55","trips":27},"geometry":{"type":"Point","coordinates":[3.61943,6.4541]}},{"type":"Feature","properties":{"id":"t56","trips":55},"geometry":{"type":"Point","coordinates":[3.438,6.439]}},{"type":"Feature","properties":{"id":"t57","trips":47},"geometry":{"type":"Point","coordinates":[3.44261,6.44325]}},{"type":"Feature","properties":{"id":"t58","trips":39},"geometry":{"type":"Point","coordinates":[3.44247,6.44995]}},{"type":"Feature","properties":{"id":"t59","trips":31},"geometry":{"type":"Point","coordinates":[3.43579,6.45674]}},{"type":"Feature","properties":{"id":"t60","trips":24},"geometry":{"type":"Point","coordinates":[3.42288,6.46084]}},{"type":"Feature","properties":{"id":"t61","trips":55},"geometry":{"type":"Point","coordinates":[3.42501,6.44338]}},{"type":"Feature","properties":{"id":"t62","trips":47},"geometry":{"type":"Point","coordinates":[3.41739,6.44325]}},{"type":"Feature","properties":{"id":"t63","trips":39},"geometry":{"type":"Point","coordinates":[3.41,6.439]}},{"type":"Feature","properties":{"id":"t64","trips":31},"geometry":{"type":"Point","coordinates":[3.40657,6.4311]}},{"type":"Feature","properties":{"id":"t65","trips":24},"geometry":{"type":"Point","coordinates":[3.41005,6.42149]}},{"type":"Feature","properties":{"id":"t66","trips":55},"geometry":{"type":"Point","coordinates":[3.42822,6.43354]}},{"type":"Feature","properties":{"id":"t67","trips":47},"geometry":{"type":"Point","coordinates":[3.43312,6.42945]}},{"type":"Feature","properties":{"id":"t68","trips":39},"geometry":{"type":"Point","coordinates":[3.44247,6.42805]}},{"type":"Feature","properties":{"id":"t69","trips":31},"geometry":{"type":"Point","coordinates":[3.45343,6.4311]}},{"type":"Feature","properties":{"id":"t70","trips":30},"geometry":{"type":"Point","coordinates":[3.576,6.53]}},{"type":"Feature","properties":{"id":"t71","trips":26},"geometry":{"type":"Point","coordinates":[3.58061,6.53425]}},{"type":"Feature","properties":{"id":"t72","trips":21},"geometry":{"type":"Point","coordinates":[3.58047,6.54095]}},{"type":"Feature","properties":{"id":"t73","trips":17},"geometry":{"type":"Point","coordinates":[3.57379,6.54774]}},{"type":"Feature","properties":{"id":"t74","trips":13},"geometry":{"type":"Point","coordinates":[3.56088,6.55184]}},{"type":"Feature","properties":{"id":"t75","trips":30},"geometry":{"type":"Point","coordinates":[3.56301,6.53438]}},{"type":"Feature","properties":{"id":"t76","trips":26},"geometry":{"type":"Point","coordinates":[3.55539,6.53425]}},{"type":"Feature","properties":{"id":"t77","trips":21},"geometry":{"type":"Point","coordinates":[3.548,6.53]}},{"type":"Feature","properties":{"id":"t78","trips":17},"geometry":{"type":"Point","coordinates":[3.54457,6.5221]}},{"type":"Feature","properties":{"id":"t79","trips":13},"geometry":{"type":"Point","coordinates":[3.54805,6.51249]}},{"type":"Feature","properties":{"id":"t80","trips":30},"geometry":{"type":"Point","coordinates":[3.56622,6.52454]}},{"type":"Feature","properties":{"id":"t81","trips":26},"geometry":{"type":"Point","coordinates":[3.57112,6.52045]}},{"type":"Feature","properties":{"id":"t82","trips":21},"geometry":{"type":"Point","coordinates":[3.58047,6.51905]}},{"type":"Feature","properties":{"id":"t83","trips":17},"geometry":{"type":"Point","coordinates":[3.59143,6.5221]}},{"type":"Feature","properties":{"id":"t84","trips":40},"geometry":{"type":"Point","coordinates":[3.368,6.44]}},{"type":"Feature","properties":{"id":"t85","trips":34},"geometry":{"type":"Point","coordinates":[3.37261,6.44425]}},{"type":"Feature","properties":{"id":"t86","trips":29},"geometry":{"type":"Point","coordinates":[3.37247,6.45095]}},{"type":"Feature","properties":{"id":"t87","trips":23},"geometry":{"type":"Point","coordinates":[3.36579,6.45774]}},{"type":"Feature","properties":{"id":"t88","trips":17},"geometry":{"type":"Point","coordinates":[3.35288,6.46184]}},{"type":"Feature","properties":{"id":"t89","trips":40},"geometry":{"type":"Point","coordinates":[3.35501,6.44438]}},{"type":"Feature","properties":{"id":"t90","trips":34},"geometry":{"type":"Point","coordinates":[3.34739,6.44425]}},{"type":"Feature","properties":{"id":"t91","trips":29},"geometry":{"type":"Point","coordinates":[3.34,6.44]}},{"type":"Feature","properties":{"id":"t92","trips":23},"geometry":{"type":"Point","coordinates":[3.33657,6.4321]}},{"type":"Feature","properties":{"id":"t93","trips":17},"geometry":{"type":"Point","coordinates":[3.34005,6.42249]}},{"type":"Feature","properties":{"id":"t94","trips":40},"geometry":{"type":"Point","coordinates":[3.35822,6.43454]}},{"type":"Feature","properties":{"id":"t95","trips":34},"geometry":{"type":"Point","coordinates":[3.36312,6.43045]}},{"type":"Feature","properties":{"id":"t96","trips":29},"geometry":{"type":"Point","coordinates":[3.37247,6.42905]}},{"type":"Feature","properties":{"id":"t97","trips":23},"geometry":{"type":"Point","coordinates":[3.38343,6.4321]}},{"type":"Feature","properties":{"id":"t98","trips":26},"geometry":{"type":"Point","coordinates":[3.396,6.457]}},{"type":"Feature","properties":{"id":"t99","trips":22},"geometry":{"type":"Point","coordinates":[3.40061,6.46125]}},{"type":"Feature","properties":{"id":"t100","trips":19},"geometry":{"type":"Point","coordinates":[3.40047,6.46795]}},{"type":"Feature","properties":{"id":"t101","trips":15},"geometry":{"type":"Point","coordinates":[3.39379,6.47474]}},{"type":"Feature","properties":{"id":"t102","trips":11},"geometry":{"type":"Point","coordinates":[3.38088,6.47884]}},{"type":"Feature","properties":{"id":"t103","trips":26},"geometry":{"type":"Point","coordinates":[3.38301,6.46138]}},{"type":"Feature","properties":{"id":"t104","trips":22},"geometry":{"type":"Point","coordinates":[3.37539,6.46125]}},{"type":"Feature","properties":{"id":"t105","trips":19},"geometry":{"type":"Point","coordinates":[3.368,6.457]}},{"type":"Feature","properties":{"id":"t106","trips":15},"geometry":{"type":"Point","coordinates":[3.36457,6.4491]}},{"type":"Feature","properties":{"id":"t107","trips":11},"geometry":{"type":"Point","coordinates":[3.36805,6.43949]}},{"type":"Feature","properties":{"id":"t108","trips":26},"geometry":{"type":"Point","coordinates":[3.38622,6.45154]}},{"type":"Feature","properties":{"id":"t109","trips":22},"geometry":{"type":"Point","coordinates":[3.39112,6.44745]}},{"type":"Feature","properties":{"id":"t110","trips":19},"geometry":{"type":"Point","coordinates":[3.40047,6.44605]}},{"type":"Feature","properties":{"id":"t111","trips":15},"geometry":{"type":"Point","coordinates":[3.41143,6.4491]}}]}