{"type":"FeatureCollection","features":[{"type":"Feature","properties":{"id":"w1","name":"Ikorodu North","pct_served":18,"population":214000},"geometry":{"type":"Polygon","coordinates":[[[3.46,6.58],[3.54,6.58],[3.54,6.64],[3.46,6.64],[3.46,6.58]]]}},{"type":"Feature","properties":{"id":"w2","name":"Ikorodu Central","pct_served":64,"population":180000},"geometry":{"type":"Polygon","coordinates":[[[3.46,6.52],[3.54,6.52],[3.54,6.58],[3.46,6.58],[3.46,6.52]]]}},{"type":"Feature","properties":{"id":"w3","name":"Ijede","pct_served":41,"population":96000},"geometry":{"type":"Polygon","coordinates":[[[3.54,6.5],[3.62,6.5],[3.62,6.56],[3.54,6.56],[3.54,6.5]]]}},{"type":"Feature","properties":{"id":"w4","name":"Victoria Island","pct_served":88,"population":132000},"geometry":{"type":"Polygon","coordinates":[[[3.4,6.42],[3.48,6.42],[3.48,6.46],[3.4,6.46],[3.4,6.42]]]}},{"type":"Feature","properties":{"id":"w5","name":"Lekki Phase 1","pct_served":33,"population":158000},"geometry":{"type":"Polygon","coordinates":[[[3.48,6.42],[3.56,6.42],[3.56,6.46],[3.48,6.46],[3.48,6.42]]]}},{"type":"Feature","properties":{"id":"w6","name":"Ajah","pct_served":12,"population":242000},"geometry":{"type":"Polygon","coordinates":[[[3.56,6.44],[3.64,6.44],[3.64,6.48],[3.56,6.48],[3.56,6.44]]]}},{"type":"Feature","properties":{"id":"w7","name":"Lagos Island Central","pct_served":76,"population":88000},"geometry":{"type":"Polygon","coordinates":[[[3.37,6.44],[3.42,6.44],[3.42,6.47],[3.37,6.47],[3.37,6.44]]]}},{"type":"Feature","properties":{"id":"w8","name":"Apapa Port","pct_served":52,"population":64000},"geometry":{"type":"Polygon","coordinates":[[[3.33,6.43],[3.38,6.43],[3.38,6.46],[3.33,6.46],[3.33,6.43]]]}}]}